NORAD_CAT_ID,OBJECT_NAME,OBJECT_TYPE,EPOCH,MEAN_MOTION,ECCENTRICITY,INCLINATION,RA_OF_ASC_NODE,ARG_OF_PERICENTER,MEAN_ANOMALY,BSTAR,MEAN_MOTION_DOT,MEAN_MOTION_DDOT,TLE_LINE0,TLE_LINE1,TLE_LINE2,SEMIMAJOR_AXIS,PERIOD,APOGEE,PERIGEE,DECAYED
53020.0,STARLINK-4287,PAYLOAD,2023-05-22 14:32:39,15.08835584,0.0001098,53.2169,352.4296,104.2009,255.9105,0.00011098,1.479e-05,0.0,0 STARLINK-4287,1 53020U 22076AL  23142.60600867  .00001479  00000-0  11098-3 0  9995,2 53020  53.2169 352.4296 0001098 104.2009 255.9105 15.08835584 49156,6917.894,95.438,540.518,538.999,0.0
53020.0,STARLINK-4287,PAYLOAD,2023-05-22 20:54:11,15.08842516,0.0001065,53.217,351.241,105.5439,254.5671,0.00045081,6.895e-05,0.0,0 STARLINK-4287,1 53020U 22076AL  23142.87096843  .00006895  00000-0  45081-3 0  9993,2 53020  53.2170 351.2410 0001065 105.5439 254.5671 15.08842516 48726,6917.873,95.437,540.474,539.001,0.0
53020.0,STARLINK-4287,PAYLOAD,2023-05-23 22:20:21,15.08850067,0.0001143,53.2172,346.4842,108.695,251.4167,0.00037716,5.721e-05,0.0,0 STARLINK-4287,1 53020U 22076AL  23143.93080797  .00005721  00000-0  37716-3 0  9995,2 53020  53.2172 346.4842 0001143 108.6950 251.4167 15.08850067 48885,6917.85,95.437,540.505,538.924,0.0
53020.0,STARLINK-4287,PAYLOAD,2023-05-24 04:41:54,15.08841304,0.0001039,53.2164,345.2942,99.9411,260.1698,1.103e-05,-1.12e-06,0.0,0 STARLINK-4287,1 53020U 22076AL  23144.19576824 -.00000112  00000-0  11030-4 0  9997,2 53020  53.2164 345.2942 0001039  99.9411 260.1698 15.08841304 49399,6917.876,95.437,540.46,539.023,0.0
53020.0,STARLINK-4287,PAYLOAD,2023-05-24 14:14:13,15.08842446,9.46e-05,53.2165,343.5097,98.2899,261.82,8.903e-05,1.13e-05,0.0,0 STARLINK-4287,1 53020U 22076AL  23144.59320690  .00001130  00000-0  89030-4 0  9994,2 53020  53.2165 343.5097 0000946  98.2899 261.8200 15.08842446 48989,6917.873,95.437,540.392,539.083,0.0
53020.0,STARLINK-4287,PAYLOAD,2023-05-25 18:51:09,15.08847821,0.0001032,53.2161,338.157,92.4161,267.6949,0.00021184,3.086e-05,0.0,0 STARLINK-4287,1 53020U 22076AL  23145.78552488  .00003086  00000-0  21184-3 0  9995,2 53020  53.2161 338.1570 0001032  92.4161 267.6949 15.08847821 49635,6917.856,95.437,540.435,539.008,0.0
53020.0,STARLINK-4287,PAYLOAD,2023-05-25 20:26:32,15.08848896,0.0001005,53.2161,337.8597,92.1446,267.9661,0.00023793,3.502e-05,0.0,0 STARLINK-4287,1 53020U 22076AL  23145.85176417  .00003502  00000-0  23793-3 0  9998,2 53020  53.2161 337.8597 0001005  92.1446 267.9661 15.08848896 49179,6917.853,95.437,540.413,539.023,0.0
53020.0,STARLINK-4287,PAYLOAD,2023-05-26 18:41:56,15.0883789,0.0001389,53.2171,333.6942,99.7986,260.3163,5.5702e-05,5.99e-06,0.0,0 STARLINK-4287,1 53020U 22076AL  23146.77912984  .00000599  00000-0  55702-4 0  9996,2 53020  53.2171 333.6942 0001389  99.7986 260.3163 15.08837890 49788,6917.887,95.438,540.713,538.791,0.0
53020.0,STARLINK-4287,PAYLOAD,2023-05-27 21:43:29,15.08850188,0.0001039,53.2166,328.6407,97.9307,262.1803,0.00021504,3.137e-05,0.0,0 STARLINK-4287,1 53020U 22076AL  23147.90520534  .00003137  00000-0  21504-3 0  9991,2 53020  53.2166 328.6407 0001039  97.9307 262.1803 15.08850188 49484,6917.849,95.437,540.433,538.995,0.0
53020.0,STARLINK-4287,PAYLOAD,2023-05-28 05:40:25,15.08845235,0.0001072,53.2163,327.1536,87.069,273.0425,0.00030547,4.578e-05,0.0,0 STARLINK-4287,1 53020U 22076AL  23148.23640855  .00004578  00000-0  30547-3 0  9994,2 53020  53.2163 327.1536 0001072  87.0690 273.0425 15.08845235 50008,6917.864,95.437,540.471,538.988,0.0
53020.0,STARLINK-4287,PAYLOAD,2023-05-28 18:23:30,15.08847155,0.0001103,53.2163,324.7752,84.3628,275.749,0.00020426,2.965e-05,0.0,0 STARLINK-4287,1 53020U 22076AL  23148.76632653  .00002965  00000-0  20426-3 0  9992,2 53020  53.2163 324.7752 0001103  84.3628 275.7490 15.08847155 49616,6917.859,95.437,540.487,538.96,0.0
53020.0,STARLINK-4287,PAYLOAD,2023-05-29 18:14:17,15.08840489,0.0001051,53.2159,320.315,88.6973,271.4139,2.6724e-05,1.38e-06,0.0,0 STARLINK-4287,1 53020U 22076AL  23149.75992870  .00000138  00000-0  26724-4 0  9990,2 53020  53.2159 320.3150 0001051  88.6973 271.4139 15.08840489 50233,6917.879,95.438,540.471,539.017,0.0
53020.0,STARLINK-4287,PAYLOAD,2023-05-29 21:25:04,15.08838775,0.0001009,53.2163,319.7205,86.7903,273.3205,2.4265e-05,9.8e-07,0.0,0 STARLINK-4287,1 53020U 22076AL  23149.89240951  .00000098  00000-0  24265-4 0  9994,2 53020  53.2163 319.7205 0001009  86.7903 273.3205 15.08838775 49784,6917.884,95.438,540.447,539.051,0.0
53020.0,STARLINK-4287,PAYLOAD,2023-05-30 11:43:32,15.08837597,0.0001017,53.2168,317.0442,91.5047,268.6062,4.2257e-05,3.85e-06,0.0,0 STARLINK-4287,1 53020U 22076AL  23150.48857262  .00000385  00000-0  42257-4 0  9990,2 53020  53.2168 317.0442 0001017  91.5047 268.6062 15.08837597 49874,6917.888,95.438,540.456,539.049,0.0
53020.0,STARLINK-4287,PAYLOAD,2023-05-30 16:29:41,15.08840766,0.0001059,53.2172,316.1518,91.4611,268.6503,6.1061e-05,6.84e-06,0.0,0 STARLINK-4287,1 53020U 22076AL  23150.68729034  .00000684  00000-0  61061-4 0  9993,2 53020  53.2172 316.1518 0001059  91.4611 268.6503 15.08840766 49901,6917.878,95.438,540.476,539.01,0.0
53020.0,STARLINK-4287,PAYLOAD,2023-05-31 03:37:23,15.08842979,0.0001015,53.2172,314.0705,89.6364,270.4745,0.00013936,1.931e-05,0.0,0 STARLINK-4287,1 53020U 22076AL  23151.15096738  .00001931  00000-0  13936-3 0  9997,2 53020  53.2172 314.0705 0001015  89.6364 270.4745 15.08842979 50440,6917.871,95.437,540.438,539.034,0.0
53020.0,STARLINK-4287,PAYLOAD,2023-05-31 14:45:06,15.08788977,0.0001265,53.2166,311.9906,96.2385,263.8751,0.00073127,0.00011353,0.0,0 STARLINK-4287,1 53020U 22076AL  23151.61466390  .00011353  00000-0  73127-3 0  9990,2 53020  53.2166 311.9906 0001265  96.2385 263.8751 15.08788977 50042,6918.036,95.441,540.776,539.026,0.0
53020.0,STARLINK-4287,PAYLOAD,2023-05-31 19:31:15,15.08840979,0.0001042,53.217,311.0978,89.4743,270.6369,0.00017634,2.52e-05,0.0,0 STARLINK-4287,1 53020U 22076AL  23151.81336906  .00002520  00000-0  17634-3 0  9998,2 53020  53.2170 311.0978 0001042  89.4743 270.6369 15.08840979 50077,6917.877,95.437,540.463,539.022,0.0
53020.0,STARLINK-4287,PAYLOAD,2023-06-01 03:28:11,15.08837795,9.8e-05,53.2167,309.6105,93.7452,266.3652,8.8976e-05,1.129e-05,0.0,0 STARLINK-4287,1 53020U 22076AL  23152.14457355  .00001129  00000-0  88976-4 0  9999,2 53020  53.2167 309.6105 0000980  93.7452 266.3652 15.08837795 50599,6917.887,95.438,540.43,539.074,0.0
53020.0,STARLINK-4287,PAYLOAD,2023-06-02 09:40:30,15.08839637,0.0001327,53.2161,303.9628,84.6211,275.4933,0.00010844,1.438e-05,0.0,0 STARLINK-4287,1 53020U 22076AL  23153.40313404  .00001438  00000-0  10844-3 0  9996,2 53020  53.2161 303.9628 0001327  84.6211 275.4933 15.08839637 50789,6917.881,95.438,540.665,538.828,0.0
53020.0,STARLINK-4287,PAYLOAD,2023-06-02 14:26:40,15.08835326,0.0001414,53.2176,303.0688,81.5647,278.5506,7.2866e-05,8.72e-06,0.0,0 STARLINK-4287,1 53020U 22076AL  23153.60185906  .00000872  00000-0  72866-4 0  9996,2 53020  53.2176 303.0688 0001414  81.5647 278.5506 15.08835326 50341,6917.895,95.438,540.738,538.781,0.0
53020.0,STARLINK-4287,PAYLOAD,2023-06-02 17:37:26,15.08838554,0.0001047,53.2168,302.4747,87.1985,272.9127,2.1352e-05,5.2e-07,0.0,0 STARLINK-4287,1 53020U 22076AL  23153.73433574  .00000052  00000-0  21352-4 0  9991,2 53020  53.2168 302.4747 0001047  87.1985 272.9127 15.08838554 50365,6917.885,95.438,540.474,539.026,0.0
53020.0,STARLINK-4287,PAYLOAD,2023-06-03 09:31:18,15.08834539,9.1e-05,53.2174,299.5012,88.5698,271.5398,6.0308e-05,6.72e-06,0.0,0 STARLINK-4287,1 53020U 22076AL  23154.39673994  .00000672  00000-0  60308-4 0  9998,2 53020  53.2174 299.5012 0000910  88.5698 271.5398 15.08834539 50934,6917.897,95.438,540.392,539.133,0.0
53020.0,STARLINK-4287,PAYLOAD,2023-06-03 14:17:27,15.08835981,0.0001089,53.2172,298.609,86.5828,273.5289,4.4963e-05,4.28e-06,0.0,0 STARLINK-4287,1 53020U 22076AL  23154.59546051  .00000428  00000-0  44963-4 0  9991,2 53020  53.2172 298.6090 0001089  86.5828 273.5289 15.08835981 50493,6917.893,95.438,540.511,539.004,0.0
53020.0,STARLINK-4287,PAYLOAD,2023-06-03 19:03:36,15.0884546,9.91e-05,53.2169,297.7164,90.5365,269.5741,3.8712e-05,3.28e-06,0.0,0 STARLINK-4287,1 53020U 22076AL  23154.79417479  .00000328  00000-0  38712-4 0  9998,2 53020  53.2169 297.7164 0000991  90.5365 269.5741 15.08845460 50528,6917.864,95.437,540.414,539.043,0.0
53020.0,STARLINK-4287,PAYLOAD,2023-06-04 09:22:05,15.08825311,0.0001068,53.2168,295.0392,88.5657,271.5458,0.00031304,4.696e-05,0.0,0 STARLINK-4287,1 53020U 22076AL  23155.39034206  .00004696  00000-0  31304-3 0  9999,2 53020  53.2168 295.0392 0001068  88.5657 271.5458 15.08825311 51081,6917.925,95.438,540.529,539.051,0.0
53020.0,STARLINK-4287,PAYLOAD,2023-06-04 14:08:14,15.0883769,0.0001066,53.2165,294.1474,84.8056,275.3058,0.00023386,3.436e-05,0.0,0 STARLINK-4287,1 53020U 22076AL  23155.58905669  .00003436  00000-0  23386-3 0  9992,2 53020  53.2165 294.1474 0001066  84.8056 275.3058 15.08837690 50641,6917.887,95.438,540.49,539.015,0.0
53020.0,STARLINK-4287,PAYLOAD,2023-06-04 15:43:37,15.08837523,0.0001,53.2166,293.85,87.8875,272.2231,0.00029955,4.482e-05,0.0,0 STARLINK-4287,1 53020U 22076AL  23155.65529587  .00004482  00000-0  29955-3 0  9991,2 53020  53.2166 293.8500 0001000  87.8875 272.2231 15.08837523 51126,6917.888,95.438,540.445,539.061,0.0
53020.0,STARLINK-4287,PAYLOAD,2023-06-05 12:23:38,15.08841426,0.000105,53.2164,289.9836,91.145,268.9662,0.00011332,1.516e-05,0.0,0 STARLINK-4287,1 53020U 22076AL  23156.51641616  .00001516  00000-0  11332-3 0  9990,2 53020  53.2164 289.9836 0001050  91.1450 268.9662 15.08841426 50782,6917.876,95.437,540.467,539.015,0.0
53020.0,STARLINK-4287,PAYLOAD,2023-06-05 15:34:24,15.08830854,9.78e-05,53.2165,289.3887,96.5336,263.5767,0.00038807,5.892e-05,0.0,0 STARLINK-4287,1 53020U 22076AL  23156.64889911  .00005892  00000-0  38807-3 0  9993,2 53020  53.2165 289.3887 0000978  96.5336 263.5767 15.08830854 51278,6917.908,95.438,540.45,539.097,0.0
